KUIPER-00167            
1 65780U 25217U   25354.50002315 -.00009797  00000+0 -11813-2 0  9997
2 65780  51.8979  35.7307 0005222  32.5108 338.8866 14.82520295  1306
KUIPER-00168            
1 65781U 25217V   25354.50002315 -.00755175  00000+0 -22947-1 0  9995
2 65781  51.8727  26.2763 0001753  56.2495  60.4220 15.36158153  5807
KUIPER-00169            
1 65782U 25217W   25354.50002315 -.00667880  00000+0 -30462-1 0  9992
2 65782  51.8820  27.4293 0005263  36.6178 250.8669 15.22719374  4548
KUIPER-00170            
1 65783U 25217X   25354.50002315  .00023769  00000+0  16057-2 0  9998
2 65783  51.8885  30.2369 0009035  34.3575 320.1778 15.06429453  5274
KUIPER-00171            
1 65784U 25217Y   25354.30556918  .00172253  00000+0  13163-2 0  9998
2 65784  51.8571  17.7481 0010672  41.2270 318.9535 15.71046004 13342
KUIPER-00172            
1 65785U 25217Z   25354.50002315 -.00731450  00000+0 -30290-1 0  9999
2 65785  51.8776  26.7453 0005541  41.9246 176.3463 15.25755376  5657
KUIPER-00173            
1 65786U 25217AA  25354.50002315 -.01590848  00000+0 -79793-1 0  9996
2 65786  51.8781  27.6129 0002585 320.9594 177.9494 15.20170738  5834
KUIPER-00174            
1 65787U 25217AB  25354.50002315 -.01147909  00000+0 -38102-1 0  9992
2 65787  51.8754  26.3703 0001919 332.7478  84.4761 15.33670270  5100
